{"type": "FeatureCollection", "features": [ {"type": "Feature", "properties": {"norad_id": 34637, "name": "COSMOS 2251 DEB", "group": "cosmos-2251-debris", "lat": -39.87429431537673, "lon": 58.98917552274424, "alt_km": 733.0244226586274, "timestamp": "2025-12-27T14:26:30.916266+00:00", "meta": {"OBJECT_NAME": "COSMOS 2251 DEB", "OBJECT_ID": "1993-036XJ", "EPOCH": "2025-12-27T06:40:32.935872", "MEAN_MOTION": 14.60219268, "ECCENTRICITY": 0.00486627, "INCLINATION": 74.0492, "RA_OF_ASC_NODE": 73.4289, "ARG_OF_PERICENTER": 139.9632, "MEAN_ANOMALY": 277.9643, "EPHEMERIS_TYPE": 0, "CLASSIFICATION_TYPE": "U", "NORAD_CAT_ID": 34637, "ELEMENT_SET_NO": 999, "REV_AT_EPOCH": 88739, "BSTAR": 0.00088519543, "MEAN_MOTION_DOT": 4.312e-05, "MEAN_MOTION_DDOT": 0}, "tle": {"line1": "1 34637U 93036XJ  25361.27815898  .00004312  00000+0  88520-3 0  9994", "line2": "2 34637  74.0492  73.4289 0048662 139.9632 277.9643 14.60219268887395"}}, "geometry": {"type": "Point", "coordinates": [58.98917552274424, -39.87429431537673]}}, {"type": "Feature", "properties": {"norad_id": 34641, "name": "COSMOS 2251 DEB", "group": "cosmos-2251-debris", "lat": -52.83616850750262, "lon": -104.20013709539568, "alt_km": 725.3909466991818, "timestamp": "2025-12-27T14:26:30.916276+00:00", "meta": {"OBJECT_NAME": "COSMOS 2251 DEB", "OBJECT_ID": "1993-036XN", "EPOCH": "2025-12-26T14:54:30.263040", "MEAN_MOTION": 14.5208918, "ECCENTRICITY": 0.0019151, "INCLINATION": 73.8391, "RA_OF_ASC_NODE": 55.1782, "ARG_OF_PERICENTER": 328.0054, "MEAN_ANOMALY": 184.3533, "EPHEMERIS_TYPE": 0, "CLASSIFICATION_TYPE": "U", "NORAD_CAT_ID": 34641, "ELEMENT_SET_NO": 999, "REV_AT_EPOCH": 88457, "BSTAR": 0.00070823, "MEAN_MOTION_DOT": 2.845e-05, "MEAN_MOTION_DDOT": 0}, "tle": {"line1": "1 34641U 93036XN  25360.62118360  .00002845  00000+0  70823-3 0  9993", "line2": "2 34641  73.8391  55.1782 0019151 328.0054 184.3533 14.52089180884575"}}, "geometry": {"type": "Point", "coordinates": [-104.20013709539568, -52.83616850750262]}}, {"type": "Feature", "properties": {"norad_id": 34642, "name": "COSMOS 2251 DEB", "group": "cosmos-2251-debris", "lat": 1.743440654561464, "lon": -45.44213717474314, "alt_km": 990.9276110107703, "timestamp": "2025-12-27T14:26:30.916287+00:00", "meta": {"OBJECT_NAME": "COSMOS 2251 DEB", "OBJECT_ID": "1993-036XP", "EPOCH": "2025-12-27T04:12:31.665600", "MEAN_MOTION": 13.99013931, "ECCENTRICITY": 0.02063991, "INCLINATION": 74.0044, "RA_OF_ASC_NODE": 314.7959, "ARG_OF_PERICENTER": 131.1703, "MEAN_ANOMALY": 246.016, "EPHEMERIS_TYPE": 0, "CLASSIFICATION_TYPE": "U", "NORAD_CAT_ID": 34642, "ELEMENT_SET_NO": 999, "REV_AT_EPOCH": 85495, "BSTAR": 0.0009419256, "MEAN_MOTION_DOT": 1.612e-05, "MEAN_MOTION_DDOT": 0}, "tle": {"line1": "1 34642U 93036XP  25361.17536650  .00001612  00000+0  94193-3 0  9998", "line2": "2 34642  74.0044 314.7959 0206399 131.1703 246.0160 13.99013931854952"}}, "geometry": {"type": "Point", "coordinates": [-45.44213717474314, 1.743440654561464]}}, {"type": "Feature", "properties": {"norad_id": 34671, "name": "COSMOS 2251 DEB", "group": "cosmos-2251-debris", "lat": 58.04312579645052, "lon": 132.93238797218996, "alt_km": 668.2906894923817, "timestamp": "2025-12-27T14:26:30.916297+00:00", "meta": {"OBJECT_NAME": "COSMOS 2251 DEB", "OBJECT_ID": "1993-036XR", "EPOCH": "2025-12-26T17:34:24.223584", "MEAN_MOTION": 14.67181745, "ECCENTRICITY": 0.00103299, "INCLINATION": 74.0276, "RA_OF_ASC_NODE": 107.28, "ARG_OF_PERICENTER": 189.2893, "MEAN_ANOMALY": 321.9941, "EPHEMERIS_TYPE": 0, "CLASSIFICATION_TYPE": "U", "NORAD_CAT_ID": 34671, "ELEMENT_SET_NO": 999, "REV_AT_EPOCH": 88502, "BSTAR": 0.0017995005, "MEAN_MOTION_DOT": 0.00010118, "MEAN_MOTION_DDOT": 0}, "tle": {"line1": "1 34671U 93036XR  25360.73222481  .00010118  00000+0  17995-2 0  9990", "line2": "2 34671  74.0276 107.2800 0010329 189.2893 321.9941 14.67181745885028"}}, "geometry": {"type": "Point", "coordinates": [132.93238797218996, 58.04312579645052]}}, {"type": "Feature", "properties": {"norad_id": 34672, "name": "COSMOS 2251 DEB", "group": "cosmos-2251-debris", "lat": 41.65116905058597, "lon": -66.96152117884476, "alt_km": 757.0658463925138, "timestamp": "2025-12-27T14:26:30.916308+00:00", "meta": {"OBJECT_NAME": "COSMOS 2251 DEB", "OBJECT_ID": "1993-036XS", "EPOCH": "2025-12-23T01:39:52.431840", "MEAN_MOTION": 14.36424251, "ECCENTRICITY": 0.00243004, "INCLINATION": 74.0343, "RA_OF_ASC_NODE": 286.6106, "ARG_OF_PERICENTER": 356.389, "MEAN_ANOMALY": 18.9966, "EPHEMERIS_TYPE": 0, "CLASSIFICATION_TYPE": "U", "NORAD_CAT_ID": 34672, "ELEMENT_SET_NO": 999, "REV_AT_EPOCH": 65326, "BSTAR": 0.00025150328, "MEAN_MOTION_DOT": 7.13e-06, "MEAN_MOTION_DDOT": 0}, "tle": {"line1": "1 34672U 93036XS  25357.06935685  .00000713  00000+0  25150-3 0  9993", "line2": "2 34672  74.0343 286.6106 0024300 356.3890  18.9966 14.36424251653260"}}, "geometry": {"type": "Point", "coordinates": [-66.96152117884476, 41.65116905058597]}}, {"type": "Feature", "properties": {"norad_id": 34678, "name": "COSMOS 2251 DEB", "group": "cosmos-2251-debris", "lat": -62.028635554073155, "lon": -168.71640914315813, "alt_km": 811.2804585756639, "timestamp": "2025-12-27T14:26:30.916318+00:00", "meta": {"OBJECT_NAME": "COSMOS 2251 DEB", "OBJECT_ID": "1993-036XY", "EPOCH": "2025-12-27T04:57:59.501088", "MEAN_MOTION": 14.30067642, "ECCENTRICITY": 0.002488, "INCLINATION": 74.0379, "RA_OF_ASC_NODE": 339.3896, "ARG_OF_PERICENTER": 24.149, "MEAN_ANOMALY": 350.9711, "EPHEMERIS_TYPE": 0, "CLASSIFICATION_TYPE": "U", "NORAD_CAT_ID": 34678, "ELEMENT_SET_NO": 999, "REV_AT_EPOCH": 87586, "BSTAR": 4.1593574e-05, "MEAN_MOTION_DOT": 8.2e-07, "MEAN_MOTION_DDOT": 0}, "tle": {"line1": "1 34678U 93036XY  25361.20693867  .00000082  00000+0  41594-4 0  9993", "line2": "2 34678  74.0379 339.3896 0024880  24.1490 350.9711 14.30067642875866"}}, "geometry": {"type": "Point", "coordinates": [-168.71640914315813, -62.028635554073155]}}, {"type": "Feature", "properties": {"norad_id": 34680, "name": "COSMOS 2251 DEB", "group": "cosmos-2251-debris", "lat": 5.9789316862363515, "lon": 103.19743864492847, "alt_km": 696.6354129908541, "timestamp": "2025-12-27T14:26:30.916329+00:00", "meta": {"OBJECT_NAME": "COSMOS 2251 DEB", "OBJECT_ID": "1993-036YA", "EPOCH": "2025-12-26T15:42:39.280320", "MEAN_MOTION": 14.60769199, "ECCENTRICITY": 0.0006141, "INCLINATION": 74.0436, "RA_OF_ASC_NODE": 103.2882, "ARG_OF_PERICENTER": 205.4057, "MEAN_ANOMALY": 222.2258, "EPHEMERIS_TYPE": 0, "CLASSIFICATION_TYPE": "U", "NORAD_CAT_ID": 34680, "ELEMENT_SET_NO": 999, "REV_AT_EPOCH": 88531, "BSTAR": 0.0011906, "MEAN_MOTION_DOT": 5.787e-05, "MEAN_MOTION_DDOT": 0}, "tle": {"line1": "1 34680U 93036YA  25360.65462130  .00005787  00000+0  11906-2 0  9990", "line2": "2 34680  74.0436 103.2882 0006141 205.4057 222.2258 14.60769199885316"}}, "geometry": {"type": "Point", "coordinates": [103.19743864492847, 5.9789316862363515]}}, {"type": "Feature", "properties": {"norad_id": 34681, "name": "COSMOS 2251 DEB", "group": "cosmos-2251-debris", "lat": 7.011684305114986, "lon": -96.97202229841298, "alt_km": 608.7235874819762, "timestamp": "2025-12-27T14:26:30.916339+00:00", "meta": {"OBJECT_NAME": "COSMOS 2251 DEB", "OBJECT_ID": "1993-036YB", "EPOCH": "2025-12-27T01:58:18.168672", "MEAN_MOTION": 14.835364, "ECCENTRICITY": 0.00256374, "INCLINATION": 74.0624, "RA_OF_ASC_NODE": 262.0409, "ARG_OF_PERICENTER": 316.8088, "MEAN_ANOMALY": 156.5247, "EPHEMERIS_TYPE": 0, "CLASSIFICATION_TYPE": "U", "NORAD_CAT_ID": 34681, "ELEMENT_SET_NO": 999, "REV_AT_EPOCH": 89483, "BSTAR": 0.001502158, "MEAN_MOTION_DOT": 0.00012427, "MEAN_MOTION_DDOT": 0}, "tle": {"line1": "1 34681U 93036YB  25361.08215473  .00012427  00000+0  15022-2 0  9997", "line2": "2 34681  74.0624 262.0409 0025637 316.8088 156.5247 14.83536400894833"}}, "geometry": {"type": "Point", "coordinates": [-96.97202229841298, 7.011684305114986]}}, {"type": "Feature", "properties": {"norad_id": 34682, "name": "COSMOS 2251 DEB", "group": "cosmos-2251-debris", "lat": -68.40108362661964, "lon": -79.02622433799766, "alt_km": 698.9290733256466, "timestamp": "2025-12-27T14:26:30.916349+00:00", "meta": {"OBJECT_NAME": "COSMOS 2251 DEB", "OBJECT_ID": "1993-036YC", "EPOCH": "2025-12-27T05:18:50.833152", "MEAN_MOTION": 14.58994237, "ECCENTRICITY": 0.00175067, "INCLINATION": 74.0395, "RA_OF_ASC_NODE": 55.406, "ARG_OF_PERICENTER": 186.7469, "MEAN_ANOMALY": 231.5051, "EPHEMERIS_TYPE": 0, "CLASSIFICATION_TYPE": "U", "NORAD_CAT_ID": 34682, "ELEMENT_SET_NO": 999, "REV_AT_EPOCH": 88897, "BSTAR": 0.00078082159, "MEAN_MOTION_DOT": 3.646e-05, "MEAN_MOTION_DDOT": 0}, "tle": {"line1": "1 34682U 93036YC  25361.22142168  .00003646  00000+0  78082-3 0  9993", "line2": "2 34682  74.0395  55.4060 0017506 186.7469 231.5051 14.58994237888972"}}, "geometry": {"type": "Point", "coordinates": [-79.02622433799766, -68.40108362661964]}}, {"type": "Feature", "properties": {"norad_id": 34683, "name": "COSMOS 2251 DEB", "group": "cosmos-2251-debris", "lat": -10.866024405140452, "lon": 60.53650692548694, "alt_km": 694.0143127864958, "timestamp": "2025-12-27T14:26:30.916360+00:00", "meta": {"OBJECT_NAME": "COSMOS 2251 DEB", "OBJECT_ID": "1993-036YD", "EPOCH": "2025-12-27T06:35:23.843328", "MEAN_MOTION": 14.64671179, "ECCENTRICITY": 0.00171505, "INCLINATION": 74.029, "RA_OF_ASC_NODE": 64.3168, "ARG_OF_PERICENTER": 178.5514, "MEAN_ANOMALY": 245.8533, "EPHEMERIS_TYPE": 0, "CLASSIFICATION_TYPE": "U", "NORAD_CAT_ID": 34683, "ELEMENT_SET_NO": 999, "REV_AT_EPOCH": 88561, "BSTAR": 0.0012710682, "MEAN_MOTION_DOT": 6.752e-05, "MEAN_MOTION_DDOT": 0}, "tle": {"line1": "1 34683U 93036YD  25361.27458152  .00006752  00000+0  12711-2 0  9999", "line2": "2 34683  74.0290  64.3168 0017150 178.5514 245.8533 14.64671179885615"}}, "geometry": {"type": "Point", "coordinates": [60.53650692548694, -10.866024405140452]}}]}